{
  "type": "FeatureCollection",
  "features": [
    {
      "type": "Feature",
      "properties": {
        "norad_id": 43058,
        "name": "GSAT0218 (GALILEO 22)",
        "group": "gnss",
        "lat": 43.754651606423835,
        "lon": 5.121325629507589,
        "alt_km": 23225.64280214719,
        "timestamp": "2025-12-02T06:27:53.257091+00:00",
        "meta_object_name": "GSAT0218 (GALILEO 22)",
        "meta_object_id": "2017-079D",
        "meta_epoch": "2025-11-30T07:26:14.163360",
        "meta_mean_motion": 1.70473798,
        "meta_eccentricity": 0.0002943,
        "meta_inclination": 55.1332,
        "meta_ra_of_asc_node": 226.9759,
        "meta_arg_of_pericenter": 303.6931,
        "meta_mean_anomaly": 56.3534,
        "meta_ephemeris_type": 0,
        "meta_classification_type": "U",
        "meta_norad_cat_id": 43058,
        "meta_element_set_no": 999,
        "meta_rev_at_epoch": 4962,
        "meta_bstar": 0,
        "meta_mean_motion_dot": 2.9e-07,
        "meta_mean_motion_ddot": 0,
        "tle_line1": "1 43058U 17079D   25334.30988615  .00000029  00000+0  00000+0 0  9990",
        "tle_line2": "2 43058  55.1332 226.9759 0002943 303.6931  56.3534  1.70473798 49627"
      },
      "geometry": {
        "type": "Point",
        "coordinates": [
          5.121325629507589,
          43.754651606423835
        ]
      }
    },
    {
      "type": "Feature",
      "properties": {
        "norad_id": 43107,
        "name": "BEIDOU-3 M7 (C27)",
        "group": "gnss",
        "lat": -10.659897639840379,
        "lon": -58.55549902420944,
        "alt_km": 21528.82821338326,
        "timestamp": "2025-12-02T06:27:53.257102+00:00",
        "meta_object_name": "BEIDOU-3 M7 (C27)",
        "meta_object_id": "2018-003A",
        "meta_epoch": "2025-12-01T05:09:41.465664",
        "meta_mean_motion": 1.86232281,
        "meta_eccentricity": 0.00025722,
        "meta_inclination": 54.507,
        "meta_ra_of_asc_node": 309.2159,
        "meta_arg_of_pericenter": 71.057,
        "meta_mean_anomaly": 288.9652,
        "meta_ephemeris_type": 0,
        "meta_classification_type": "U",
        "meta_norad_cat_id": 43107,
        "meta_element_set_no": 999,
        "meta_rev_at_epoch": 5366,
        "meta_bstar": 0,
        "meta_mean_motion_dot": -5.7e-07,
        "meta_mean_motion_ddot": 0,
        "tle_line1": "1 43107U 18003A   25335.21506326 -.00000057  00000+0  00000+0 0  9991",
        "tle_line2": "2 43107  54.5070 309.2159 0002572  71.0570 288.9652  1.86232281 53666"
      },
      "geometry": {
        "type": "Point",
        "coordinates": [
          -58.55549902420944,
          -10.659897639840379
        ]
      }
    },
    {
      "type": "Feature",
      "properties": {
        "norad_id": 43108,
        "name": "BEIDOU-3 M8 (C28)",
        "group": "gnss",
        "lat": 19.226055141302187,
        "lon": -36.44570216021761,
        "alt_km": 21530.45507934114,
        "timestamp": "2025-12-02T06:27:53.257114+00:00",
        "meta_object_name": "BEIDOU-3 M8 (C28)",
        "meta_object_id": "2018-003B",
        "meta_epoch": "2025-12-01T03:50:13.118784",
        "meta_mean_motion": 1.86230755,
        "meta_eccentricity": 0.0004823,
        "meta_inclination": 54.4999,
        "meta_ra_of_asc_node": 309.2007,
        "meta_arg_of_pericenter": 273.5581,
        "meta_mean_anomaly": 86.3811,
        "meta_ephemeris_type": 0,
        "meta_classification_type": "U",
        "meta_norad_cat_id": 43108,
        "meta_element_set_no": 999,
        "meta_rev_at_epoch": 5367,
        "meta_bstar": 0,
        "meta_mean_motion_dot": -5.7e-07,
        "meta_mean_motion_ddot": 0,
        "tle_line1": "1 43108U 18003B   25335.15987406 -.00000057  00000+0  00000+0 0  9997",
        "tle_line2": "2 43108  54.4999 309.2007 0004823 273.5581  86.3811  1.86230755 53672"
      },
      "geometry": {
        "type": "Point",
        "coordinates": [
          -36.44570216021761,
          19.226055141302187
        ]
      }
    },
    {
      "type": "Feature",
      "properties": {
        "norad_id": 43207,
        "name": "BEIDOU-3 M4 (C22)",
        "group": "gnss",
        "lat": 56.42692661640593,
        "lon": 155.46014037434028,
        "alt_km": 21518.133693687058,
        "timestamp": "2025-12-02T06:27:53.257128+00:00",
        "meta_object_name": "BEIDOU-3 M4 (C22)",
        "meta_object_id": "2018-018A",
        "meta_epoch": "2025-12-01T14:26:30.979680",
        "meta_mean_motion": 1.86230736,
        "meta_eccentricity": 0.00040579,
        "meta_inclination": 56.4763,
        "meta_ra_of_asc_node": 69.6735,
        "meta_arg_of_pericenter": 15.5905,
        "meta_mean_anomaly": 344.4245,
        "meta_ephemeris_type": 0,
        "meta_classification_type": "U",
        "meta_norad_cat_id": 43207,
        "meta_element_set_no": 999,
        "meta_rev_at_epoch": 5306,
        "meta_bstar": 0,
        "meta_mean_motion_dot": -4.1e-07,
        "meta_mean_motion_ddot": 0,
        "tle_line1": "1 43207U 18018A   25335.60174745 -.00000041  00000+0  00000+0 0  9990",
        "tle_line2": "2 43207  56.4763  69.6735 0004057  15.5905 344.4245  1.86230736 53062"
      },
      "geometry": {
        "type": "Point",
        "coordinates": [
          155.46014037434028,
          56.42692661640593
        ]
      }
    },
    {
      "type": "Feature",
      "properties": {
        "norad_id": 43208,
        "name": "BEIDOU-3 M3 (C21)",
        "group": "gnss",
        "lat": 34.68139383763774,
        "lon": 96.91499444783689,
        "alt_km": 21522.4051874638,
        "timestamp": "2025-12-02T06:27:53.257141+00:00",
        "meta_object_name": "BEIDOU-3 M3 (C21)",
        "meta_object_id": "2018-018B",
        "meta_epoch": "2025-12-01T16:02:18.991968",
        "meta_mean_motion": 1.8623092,
        "meta_eccentricity": 0.0006202,
        "meta_inclination": 56.4757,
        "meta_ra_of_asc_node": 69.6754,
        "meta_arg_of_pericenter": 317.7511,
        "meta_mean_anomaly": 42.2037,
        "meta_ephemeris_type": 0,
        "meta_classification_type": "U",
        "meta_norad_cat_id": 43208,
        "meta_element_set_no": 999,
        "meta_rev_at_epoch": 5306,
        "meta_bstar": 0,
        "meta_mean_motion_dot": -4.2e-07,
        "meta_mean_motion_ddot": 0,
        "tle_line1": "1 43208U 18018B   25335.66827537 -.00000042  00000+0  00000+0 0  9992",
        "tle_line2": "2 43208  56.4757  69.6754 0006202 317.7511  42.2037  1.86230920 53068"
      },
      "geometry": {
        "type": "Point",
        "coordinates": [
          96.91499444783689,
          34.68139383763774
        ]
      }
    },
    {
      "type": "Feature",
      "properties": {
        "norad_id": 43245,
        "name": "BEIDOU-3 M9 (C29)",
        "group": "gnss",
        "lat": -52.693768784673836,
        "lon": -163.01504346637606,
        "alt_km": 21529.19659744205,
        "timestamp": "2025-12-02T06:27:53.257152+00:00",
        "meta_object_name": "BEIDOU-3 M9 (C29)",
        "meta_object_id": "2018-029A",
        "meta_epoch": "2025-12-01T08:20:14.784576",
        "meta_mean_motion": 1.86227904,
        "meta_eccentricity": 0.00017985,
        "meta_inclination": 54.3765,
        "meta_ra_of_asc_node": 306.8658,
        "meta_arg_of_pericenter": 272.1738,
        "meta_mean_anomaly": 87.7976,
        "meta_ephemeris_type": 0,
        "meta_classification_type": "U",
        "meta_norad_cat_id": 43245,
        "meta_element_set_no": 999,
        "meta_rev_at_epoch": 5221,
        "meta_bstar": 0,
        "meta_mean_motion_dot": -5.8e-07,
        "meta_mean_motion_ddot": 0,
        "tle_line1": "1 43245U 18029A   25335.34739334 -.00000058  00000+0  00000+0 0  9994",
        "tle_line2": "2 43245  54.3765 306.8658 0001798 272.1738  87.7976  1.86227904 52214"
      },
      "geometry": {
        "type": "Point",
        "coordinates": [
          -163.01504346637606,
          -52.693768784673836
        ]
      }
    },
    {
      "type": "Feature",
      "properties": {
        "norad_id": 43246,
        "name": "BEIDOU-3 M10 (C30)",
        "group": "gnss",
        "lat": -43.87961419499491,
        "lon": -96.73772499511105,
        "alt_km": 21527.40577821319,
        "timestamp": "2025-12-02T06:27:53.257165+00:00",
        "meta_object_name": "BEIDOU-3 M10 (C30)",
        "meta_object_id": "2018-029B",
        "meta_epoch": "2025-11-29T03:14:13.986240",
        "meta_mean_motion": 1.86228967,
        "meta_eccentricity": 0.00039142,
        "meta_inclination": 54.3758,
        "meta_ra_of_asc_node": 306.9698,
        "meta_arg_of_pericenter": 358.6776,
        "meta_mean_anomaly": 1.3207,
        "meta_ephemeris_type": 0,
        "meta_classification_type": "U",
        "meta_norad_cat_id": 43246,
        "meta_element_set_no": 999,
        "meta_rev_at_epoch": 5215,
        "meta_bstar": 0,
        "meta_mean_motion_dot": -4.6e-07,
        "meta_mean_motion_ddot": 0,
        "tle_line1": "1 43246U 18029B   25333.13488410 -.00000046  00000+0  00000+0 0  9993",
        "tle_line2": "2 43246  54.3758 306.9698 0003914 358.6776   1.3207  1.86228967 52158"
      },
      "geometry": {
        "type": "Point",
        "coordinates": [
          -96.73772499511105,
          -43.87961419499491
        ]
      }
    }
  ]
}